ORBCOMM FM20            
1 25416U 98046D   25125.15899305  .00001387  00000+0  50974-3 0  9996
2 25416  44.9960  25.0283 0001424  20.7873 339.3032 14.37131470398116
ORBCOMM FM16            
1 25417U 98046E   25124.92777834  .00001932  00000+0  66837-3 0  9994
2 25417  44.9946  18.2578 0004639  68.4185 291.7157 14.38801658398020
ORBCOMM FM15            
1 25418U 98046F   25124.75435640  .00001585  00000+0  56078-3 0  9992
2 25418  44.9979  24.0960 0004209  65.4612 294.6674 14.38447863397997
ORBCOMM FM14            
1 25419U 98046G   25124.85237605  .00001763  00000+0  61416-3 0  9995
2 25419  44.9968  21.9912 0003253  55.8087 304.3069 14.38802314398192
ORBCOMM FM13            
1 25420U 98046H   25124.79025834  .00001578  00000+0  56809-3 0  9993
2 25420  44.9982  29.8443 0005367  47.9233 312.2071 14.37580094396993
ORBCOMM FM21            
1 25475U 98053A   25125.48199940  .00001275  00000+0  47109-3 0  9995
2 25475  45.0072 111.7160 0002888 320.1648  39.8987 14.37265178391438
ORBCOMM FM22            
1 25476U 98053B   25125.34118317  .00001683  00000+0  59462-3 0  9998
2 25476  45.0058 107.5770 0004403 338.8680  21.1986 14.38276962391460
ORBCOMM FM23            
1 25477U 98053C   25125.14051596  .00001415  00000+0  51591-3 0  9990
2 25477  45.0071 115.5154 0003752 327.6842  32.3776 14.37435918391517
